ORBCOMM FM103           
1 40091U 14040F   24264.55000815  .00001917  00000+0  45855-3 0  9992
2 40091  47.0042 210.2997 0001296 126.1937 233.9068 14.57085874524764
ORBCOMM FM114           
1 41179U 15081A   24264.30489581  .00002090  00000+0  49690-3 0  9994
2 41179  47.0012 120.6544 0002639 199.3146 160.7639 14.57037183465098
ORBCOMM FM119           
1 41180U 15081B   24264.62391119  .00002081  00000+0  49472-3 0  9998
2 41180  47.0011  28.3803 0002294 257.0340 103.0289 14.57067569466392
ORBCOMM FM105           
1 41181U 15081C   24264.55658649  .00001022  00000+0  33753-3 0  9994
2 41181  47.0032   7.8829 0002263 213.3760 146.6977 14.44652679461753
ORBCOMM FM110           
1 41182U 15081D   24264.62387590  .00001829  00000+0  43958-3 0  9990
2 41182  47.0001 118.5346 0001253 317.5470  42.5318 14.57031992465016
ORBCOMM FM118           
1 41183U 15081E   24264.60200850  .00001919  00000+0  45946-3 0  9991
2 41183  47.0023 118.9797 0001577 327.9702  32.1087 14.57036948465112
ORBCOMM FM112           
1 41184U 15081F   24264.60118768  .00002401  00000+0  56547-3 0  9994
2 41184  46.9997  27.6848 0002611 243.3750 116.6868 14.57029186466334
ORBCOMM FM113           
1 41185U 15081G   24264.57825138  .00002406  00000+0  56641-3 0  9997
2 41185  47.0014  28.0793 0002368 256.3646 103.6975 14.57044930466315
